AMC-18                  
1 29644U 06054B   22230.83968694 -.00000222  00000+0  00000+0 0  9997
2 29644   0.0475 289.8000 0002631 228.4581  28.1897  1.00271874 57515
ASTRA 1L                
1 31306U 07016A   22230.38000684  .00000112  00000+0  00000+0 0  9997
2 31306   0.1126 291.3853 0001776 271.0315 280.2842  1.00273687 30986
ASTRA 4A (SIRIUS 4)     
1 32299U 07057A   22230.85721420  .00000026  00000+0  00000+0 0  9998
2 32299   0.0406 300.7070 0002927 215.1675 124.7130  1.00273300 37645
AMC-21                  
1 33275U 08038B   22230.62025615  .00000029  00000+0  00000+0 0  9994
2 33275   0.0574 286.8719 0002464 223.3563 275.0980  1.00271549 51465
ASTRA 1M                
1 33436U 08057A   22230.86000462  .00000113  00000+0  00000+0 0  9997
2 33436   0.0290 106.7290 0005307  40.3671 148.8623  1.00270675 31704
CIEL-2                  
1 33453U 08063A   22230.75862691  .00000051  00000+0  00000+0 0  9992
2 33453   0.0325 243.2388 0002960 266.6343 321.4638  1.00273376 50110
NSS-9                   
1 33749U 09008A   22229.23304817  .00000061  00000+0  00000+0 0  9993
2 33749   0.0093 333.2364 0002098 181.1143  78.1989  1.00272207 49491
SES-7 (PROTOSTAR 2)     
1 34941U 09027A   22230.59493618 -.00000352  00000+0  00000+0 0  9992
2 34941   0.0318  88.0443 0001507 141.6975  59.5877  1.00270244 48595
NSS-12                  
1 36032U 09058A   22230.61091292  .00000064  00000+0  00000+0 0  9993
2 36032   0.0054  54.5047 0002805 104.6467  84.7112  1.00273101 46898
SES-1                   
1 36516U 10016A   22230.56368840 -.00000121  00000+0  00000+0 0  9991
2 36516   0.0546 284.9802 0002218 223.5606 280.2848  1.00272277 45018
ASTRA 3B                
1 36581U 10021A   22230.86087661  .00000130  00000+0  00000+0 0  9990
2 36581   0.0685  65.2741 0003368  87.8923 147.4140  1.00272745 44856
SES-3                   
1 37748U 11035A   22230.56368840 -.00000109  00000+0  00000+0 0  9997
2 37748   0.0626 289.9950 0002647 223.2599 273.5558  1.00272482 40564
ASTRA 1N                
1 37775U 11041A   22230.86438271  .00000113  00000+0  00000+0 0  9997
2 37775   0.0496  37.2916 0003194  53.1064 207.1315  1.00272182 30504
SES-2                   
1 37809U 11049A   22230.83890213 -.00000202  00000+0  00000+0 0  9998
2 37809   0.0604 284.6371 0002611 219.7550  37.7659  1.00271252 39974
QUETZSAT 1              
1 37826U 11054A   22230.84090773 -.00000248  00000+0  00000+0 0  9997
2 37826   0.0115  39.8728 0002850 116.7256  36.2852  1.00271643 35878
SES-4                   
1 38087U 12007A   22230.85743808 -.00000175  00000+0  00000+0 0  9990
2 38087   0.0138  39.6673 0002307 108.9215 105.2729  1.00272081 38213
SES-5                   
1 38652U 12036A   22229.62948983  .00000024  00000+0  00000+0 0  9996
2 38652   0.0506 290.0840 0001988 215.7755  51.6959  1.00272370 30457
