[{"OBJECT_NAME":"AMC-18","OBJECT_ID":"2006-054B","EPOCH":"2022-08-18T20:09:08.951616","MEAN_MOTION":1.00271874,"ECCENTRICITY":0.0002631,"INCLINATION":0.0475,"RA_OF_ASC_NODE":289.8,"ARG_OF_PERICENTER":228.4581,"MEAN_ANOMALY":28.1897,"EPHEMERIS_TYPE":0,"CLASSIFICATION_TYPE":"U","NORAD_CAT_ID":29644,"ELEMENT_SET_NO":999,"REV_AT_EPOCH":5751,"BSTAR":0,"MEAN_MOTION_DOT":-2.22e-6,"MEAN_MOTION_DDOT":0},{"OBJECT_NAME":"ASTRA 1L","OBJECT_ID":"2007-016A","EPOCH":"2022-08-18T09:07:12.590976","MEAN_MOTION":1.00273687,"ECCENTRICITY":0.0001776,"INCLINATION":0.1126,"RA_OF_ASC_NODE":291.3853,"ARG_OF_PERICENTER":271.0315,"MEAN_ANOMALY":280.2842,"EPHEMERIS_TYPE":0,"CLASSIFICATION_TYPE":"U","NORAD_CAT_ID":31306,"ELEMENT_SET_NO":999,"REV_AT_EPOCH":3098,"BSTAR":0,"MEAN_MOTION_DOT":1.12e-6,"MEAN_MOTION_DDOT":0},{"OBJECT_NAME":"ASTRA 4A (SIRIUS 4)","OBJECT_ID":"2007-057A","EPOCH":"2022-08-18T20:34:23.306880","MEAN_MOTION":1.002733,"ECCENTRICITY":0.0002927,"INCLINATION":0.0406,"RA_OF_ASC_NODE":300.707,"ARG_OF_PERICENTER":215.1675,"MEAN_ANOMALY":124.713,"EPHEMERIS_TYPE":0,"CLASSIFICATION_TYPE":"U","NORAD_CAT_ID":32299,"ELEMENT_SET_NO":999,"REV_AT_EPOCH":3764,"BSTAR":0,"MEAN_MOTION_DOT":2.6e-7,"MEAN_MOTION_DDOT":0},{"OBJECT_NAME":"AMC-21","OBJECT_ID":"2008-038B","EPOCH":"2022-08-18T14:53:10.131360","MEAN_MOTION":1.00271549,"ECCENTRICITY":0.0002464,"INCLINATION":0.0574,"RA_OF_ASC_NODE":286.8719,"ARG_OF_PERICENTER":223.3563,"MEAN_ANOMALY":275.098,"EPHEMERIS_TYPE":0,"CLASSIFICATION_TYPE":"U","NORAD_CAT_ID":33275,"ELEMENT_SET_NO":999,"REV_AT_EPOCH":5146,"BSTAR":0,"MEAN_MOTION_DOT":2.9e-7,"MEAN_MOTION_DDOT":0},{"OBJECT_NAME":"ASTRA 1M","OBJECT_ID":"2008-057A","EPOCH":"2022-08-18T20:38:24.399168","MEAN_MOTION":1.00270675,"ECCENTRICITY":0.0005307,"INCLINATION":0.029,"RA_OF_ASC_NODE":106.729,"ARG_OF_PERICENTER":40.3671,"MEAN_ANOMALY":148.8623,"EPHEMERIS_TYPE":0,"CLASSIFICATION_TYPE":"U","NORAD_CAT_ID":33436,"ELEMENT_SET_NO":999,"REV_AT_EPOCH":3170,"BSTAR":0,"MEAN_MOTION_DOT":1.13e-6,"MEAN_MOTION_DDOT":0},{"OBJECT_NAME":"CIEL-2","OBJECT_ID":"2008-063A","EPOCH":"2022-08-18T18:12:25.365024","MEAN_MOTION":1.00273376,"ECCENTRICITY":0.000296,"INCLINATION":0.0325,"RA_OF_ASC_NODE":243.2388,"ARG_OF_PERICENTER":266.6343,"MEAN_ANOMALY":321.4638,"EPHEMERIS_TYPE":0,"CLASSIFICATION_TYPE":"U","NORAD_CAT_ID":33453,"ELEMENT_SET_NO":999,"REV_AT_EPOCH":5011,"BSTAR":0,"MEAN_MOTION_DOT":5.1e-7,"MEAN_MOTION_DDOT":0},{"OBJECT_NAME":"NSS-9","OBJECT_ID":"2009-008A","EPOCH":"2022-08-17T05:35:35.361888","MEAN_MOTION":1.00272207,"ECCENTRICITY":0.0002098,"INCLINATION":0.0093,"RA_OF_ASC_NODE":333.2364,"ARG_OF_PERICENTER":181.1143,"MEAN_ANOMALY":78.1989,"EPHEMERIS_TYPE":0,"CLASSIFICATION_TYPE":"U","NORAD_CAT_ID":33749,"ELEMENT_SET_NO":999,"REV_AT_EPOCH":4949,"BSTAR":0,"MEAN_MOTION_DOT":6.1e-7,"MEAN_MOTION_DDOT":0},{"OBJECT_NAME":"SES-7 (PROTOSTAR 2)","OBJECT_ID":"2009-027A","EPOCH":"2022-08-18T14:16:42.485952","MEAN_MOTION":1.00270244,"ECCENTRICITY":0.0001507,"INCLINATION":0.0318,"RA_OF_ASC_NODE":88.0443,"ARG_OF_PERICENTER":141.6975,"MEAN_ANOMALY":59.5877,"EPHEMERIS_TYPE":0,"CLASSIFICATION_TYPE":"U","NORAD_CAT_ID":34941,"ELEMENT_SET_NO":999,"REV_AT_EPOCH":4859,"BSTAR":0,"MEAN_MOTION_DOT":-3.52e-6,"MEAN_MOTION_DDOT":0},{"OBJECT_NAME":"NSS-12","OBJECT_ID":"2009-058A","EPOCH":"2022-08-18T14:39:42.876288","MEAN_MOTION":1.00273101,"ECCENTRICITY":0.0002805,"INCLINATION":0.0054,"RA_OF_ASC_NODE":54.5047,"ARG_OF_PERICENTER":104.6467,"MEAN_ANOMALY":84.7112,"EPHEMERIS_TYPE":0,"CLASSIFICATION_TYPE":"U","NORAD_CAT_ID":36032,"ELEMENT_SET_NO":999,"REV_AT_EPOCH":4689,"BSTAR":0,"MEAN_MOTION_DOT":6.4e-7,"MEAN_MOTION_DDOT":0},{"OBJECT_NAME":"SES-1","OBJECT_ID":"2010-016A","EPOCH":"2022-08-18T13:31:42.677760","MEAN_MOTION":1.00272277,"ECCENTRICITY":0.0002218,"INCLINATION":0.0546,"RA_OF_ASC_NODE":284.9802,"ARG_OF_PERICENTER":223.5606,"MEAN_ANOMALY":280.2848,"EPHEMERIS_TYPE":0,"CLASSIFICATION_TYPE":"U","NORAD_CAT_ID":36516,"ELEMENT_SET_NO":999,"REV_AT_EPOCH":4501,"BSTAR":0,"MEAN_MOTION_DOT":-1.21e-6,"MEAN_MOTION_DDOT":0},{"OBJECT_NAME":"ASTRA 3B","OBJECT_ID":"2010-021A","EPOCH":"2022-08-18T20:39:39.739104","MEAN_MOTION":1.00272745,"ECCENTRICITY":0.0003368,"INCLINATION":0.0685,"RA_OF_ASC_NODE":65.2741,"ARG_OF_PERICENTER":87.8923,"MEAN_ANOMALY":147.414,"EPHEMERIS_TYPE":0,"CLASSIFICATION_TYPE":"U","NORAD_CAT_ID":36581,"ELEMENT_SET_NO":999,"REV_AT_EPOCH":4485,"BSTAR":0,"MEAN_MOTION_DOT":1.3e-6,"MEAN_MOTION_DDOT":0},{"OBJECT_NAME":"SES-3","OBJECT_ID":"2011-035A","EPOCH":"2022-08-18T13:31:42.677760","MEAN_MOTION":1.00272482,"ECCENTRICITY":0.0002647,"INCLINATION":0.0626,"RA_OF_ASC_NODE":289.995,"ARG_OF_PERICENTER":223.2599,"MEAN_ANOMALY":273.5558,"EPHEMERIS_TYPE":0,"CLASSIFICATION_TYPE":"U","NORAD_CAT_ID":37748,"ELEMENT_SET_NO":999,"REV_AT_EPOCH":4056,"BSTAR":0,"MEAN_MOTION_DOT":-1.09e-6,"MEAN_MOTION_DDOT":0},{"OBJECT_NAME":"ASTRA 1N","OBJECT_ID":"2011-041A","EPOCH":"2022-08-18T20:44:42.666144","MEAN_MOTION":1.00272182,"ECCENTRICITY":0.0003194,"INCLINATION":0.0496,"RA_OF_ASC_NODE":37.2916,"ARG_OF_PERICENTER":53.1064,"MEAN_ANOMALY":207.1315,"EPHEMERIS_TYPE":0,"CLASSIFICATION_TYPE":"U","NORAD_CAT_ID":37775,"ELEMENT_SET_NO":999,"REV_AT_EPOCH":3050,"BSTAR":0,"MEAN_MOTION_DOT":1.13e-6,"MEAN_MOTION_DDOT":0},{"OBJECT_NAME":"SES-2","OBJECT_ID":"2011-049A","EPOCH":"2022-08-18T20:08:01.144032","MEAN_MOTION":1.00271252,"ECCENTRICITY":0.0002611,"INCLINATION":0.0604,"RA_OF_ASC_NODE":284.6371,"ARG_OF_PERICENTER":219.755,"MEAN_ANOMALY":37.7659,"EPHEMERIS_TYPE":0,"CLASSIFICATION_TYPE":"U","NORAD_CAT_ID":37809,"ELEMENT_SET_NO":999,"REV_AT_EPOCH":3997,"BSTAR":0,"MEAN_MOTION_DOT":-2.02e-6,"MEAN_MOTION_DDOT":0},{"OBJECT_NAME":"QUETZSAT 1","OBJECT_ID":"2011-054A","EPOCH":"2022-08-18T20:10:54.427872","MEAN_MOTION":1.00271643,"ECCENTRICITY":0.000285,"INCLINATION":0.0115,"RA_OF_ASC_NODE":39.8728,"ARG_OF_PERICENTER":116.7256,"MEAN_ANOMALY":36.2852,"EPHEMERIS_TYPE":0,"CLASSIFICATION_TYPE":"U","NORAD_CAT_ID":37826,"ELEMENT_SET_NO":999,"REV_AT_EPOCH":3587,"BSTAR":0,"MEAN_MOTION_DOT":-2.48e-6,"MEAN_MOTION_DDOT":0},{"OBJECT_NAME":"SES-4","OBJECT_ID":"2012-007A","EPOCH":"2022-08-18T20:34:42.650112","MEAN_MOTION":1.00272081,"ECCENTRICITY":0.0002307,"INCLINATION":0.0138,"RA_OF_ASC_NODE":39.6673,"ARG_OF_PERICENTER":108.9215,"MEAN_ANOMALY":105.2729,"EPHEMERIS_TYPE":0,"CLASSIFICATION_TYPE":"U","NORAD_CAT_ID":38087,"ELEMENT_SET_NO":999,"REV_AT_EPOCH":3821,"BSTAR":0,"MEAN_MOTION_DOT":-1.75e-6,"MEAN_MOTION_DDOT":0},{"OBJECT_NAME":"SES-5","OBJECT_ID":"2012-036A","EPOCH":"2022-08-17T15:06:27.921312","MEAN_MOTION":1.0027237,"ECCENTRICITY":0.0001988,"INCLINATION":0.0506,"RA_OF_ASC_NODE":290.084,"ARG_OF_PERICENTER":215.7755,"MEAN_ANOMALY":51.6959,"EPHEMERIS_TYPE":0,"CLASSIFICATION_TYPE":"U","NORAD_CAT_ID":38652,"ELEMENT_SET_NO":999,"REV_AT_EPOCH":3045,"BSTAR":0,"MEAN_MOTION_DOT":2.4e-7,"MEAN_MOTION_DDOT":0}]